{
  "type": "FeatureCollection",
  "features": [
    {
      "type": "Feature",
      "properties": {
        "norad_id": 36083,
        "name": "IRIDIUM 33 DEB",
        "group": "iridium-33-debris",
        "lat": 81.16034515881573,
        "lon": -168.71801965917447,
        "alt_km": 753.4760751455487,
        "timestamp": "2025-12-09T11:33:55.186404+00:00",
        "meta_object_name": "IRIDIUM 33 DEB",
        "meta_object_id": "1997-051VQ",
        "meta_epoch": "2025-12-06T21:32:26.892672",
        "meta_mean_motion": 14.43175138,
        "meta_eccentricity": 0.00247889,
        "meta_inclination": 86.3442,
        "meta_ra_of_asc_node": 36.6683,
        "meta_arg_of_pericenter": 243.3344,
        "meta_mean_anomaly": 116.5319,
        "meta_ephemeris_type": 0,
        "meta_classification_type": "U",
        "meta_norad_cat_id": 36083,
        "meta_element_set_no": 999,
        "meta_rev_at_epoch": 85365,
        "meta_bstar": 0.00098432537,
        "meta_mean_motion_dot": 3.337e-05,
        "meta_mean_motion_ddot": 0,
        "tle_line1": "1 36083U 97051VQ  25340.89753348  .00003337  00000+0  98433-3 0  9998",
        "tle_line2": "2 36083  86.3442  36.6683 0024788 243.3344 116.5319 14.43175138853653"
      },
      "geometry": {
        "type": "Point",
        "coordinates": [
          -168.71801965917447,
          81.16034515881573
        ]
      }
    },
    {
      "type": "Feature",
      "properties": {
        "norad_id": 36390,
        "name": "IRIDIUM 33 DEB",
        "group": "iridium-33-debris",
        "lat": -78.11866970224605,
        "lon": -77.07795704282677,
        "alt_km": 663.8450194108837,
        "timestamp": "2025-12-09T11:33:55.186414+00:00",
        "meta_object_name": "IRIDIUM 33 DEB",
        "meta_object_id": "1997-051VU",
        "meta_epoch": "2025-12-08T14:44:10.068288",
        "meta_mean_motion": 14.7351876,
        "meta_eccentricity": 0.0029895,
        "meta_inclination": 86.2903,
        "meta_ra_of_asc_node": 301.2813,
        "meta_arg_of_pericenter": 175.8211,
        "meta_mean_anomaly": 184.3262,
        "meta_ephemeris_type": 0,
        "meta_classification_type": "U",
        "meta_norad_cat_id": 36390,
        "meta_element_set_no": 999,
        "meta_rev_at_epoch": 66201,
        "meta_bstar": 0.0016262,
        "meta_mean_motion_dot": 0.00010673,
        "meta_mean_motion_ddot": 0,
        "tle_line1": "1 36390U 97051VU  25342.61400542  .00010673  00000+0  16262-2 0  9996",
        "tle_line2": "2 36390  86.2903 301.2813 0029895 175.8211 184.3262 14.73518760662010"
      },
      "geometry": {
        "type": "Point",
        "coordinates": [
          -77.07795704282677,
          -78.11866970224605
        ]
      }
    },
    {
      "type": "Feature",
      "properties": {
        "norad_id": 36483,
        "name": "IRIDIUM 33 DEB",
        "group": "iridium-33-debris",
        "lat": -51.39754631156325,
        "lon": -121.56740472457741,
        "alt_km": 747.3781023733518,
        "timestamp": "2025-12-09T11:33:55.186424+00:00",
        "meta_object_name": "IRIDIUM 33 DEB",
        "meta_object_id": "1997-051VZ",
        "meta_epoch": "2025-12-08T11:14:38.908896",
        "meta_mean_motion": 14.45787314,
        "meta_eccentricity": 0.00108756,
        "meta_inclination": 86.3794,
        "meta_ra_of_asc_node": 54.3174,
        "meta_arg_of_pericenter": 137.8715,
        "meta_mean_anomaly": 222.3325,
        "meta_ephemeris_type": 0,
        "meta_classification_type": "U",
        "meta_norad_cat_id": 36483,
        "meta_element_set_no": 999,
        "meta_rev_at_epoch": 65084,
        "meta_bstar": 0.00090663472,
        "meta_mean_motion_dot": 3.235e-05,
        "meta_mean_motion_ddot": 0,
        "tle_line1": "1 36483U 97051VZ  25342.46850589  .00003235  00000+0  90663-3 0  9996",
        "tle_line2": "2 36483  86.3794  54.3174 0010875 137.8715 222.3325 14.45787314650846"
      },
      "geometry": {
        "type": "Point",
        "coordinates": [
          -121.56740472457741,
          -51.39754631156325
        ]
      }
    },
    {
      "type": "Feature",
      "properties": {
        "norad_id": 36490,
        "name": "IRIDIUM 33 DEB",
        "group": "iridium-33-debris",
        "lat": 46.7474701977868,
        "lon": -171.9418409530889,
        "alt_km": 634.9043453225695,
        "timestamp": "2025-12-09T11:33:55.186434+00:00",
        "meta_object_name": "IRIDIUM 33 DEB",
        "meta_object_id": "1997-051WG",
        "meta_epoch": "2025-12-09T01:12:10.854432",
        "meta_mean_motion": 14.76067725,
        "meta_eccentricity": 0.0005523,
        "meta_inclination": 86.3654,
        "meta_ra_of_asc_node": 12.1269,
        "meta_arg_of_pericenter": 91.2882,
        "meta_mean_anomaly": 268.897,
        "meta_ephemeris_type": 0,
        "meta_classification_type": "U",
        "meta_norad_cat_id": 36490,
        "meta_element_set_no": 999,
        "meta_rev_at_epoch": 86430,
        "meta_bstar": 0.0018322,
        "meta_mean_motion_dot": 0.00012668,
        "meta_mean_motion_ddot": 0,
        "tle_line1": "1 36490U 97051WG  25343.05012563  .00012668  00000+0  18322-2 0  9993",
        "tle_line2": "2 36490  86.3654  12.1269 0005523  91.2882 268.8970 14.76067725864308"
      },
      "geometry": {
        "type": "Point",
        "coordinates": [
          -171.9418409530889,
          46.7474701977868
        ]
      }
    },
    {
      "type": "Feature",
      "properties": {
        "norad_id": 36493,
        "name": "IRIDIUM 33 DEB",
        "group": "iridium-33-debris",
        "lat": -3.9295573920867266,
        "lon": -166.6222114967292,
        "alt_km": 687.4916217019527,
        "timestamp": "2025-12-09T11:33:55.186444+00:00",
        "meta_object_name": "IRIDIUM 33 DEB",
        "meta_object_id": "1997-051WK",
        "meta_epoch": "2025-12-08T19:58:38.259264",
        "meta_mean_motion": 14.65158506,
        "meta_eccentricity": 0.00106914,
        "meta_inclination": 86.3572,
        "meta_ra_of_asc_node": 13.4155,
        "meta_arg_of_pericenter": 18.0895,
        "meta_mean_anomaly": 342.0696,
        "meta_ephemeris_type": 0,
        "meta_classification_type": "U",
        "meta_norad_cat_id": 36493,
        "meta_element_set_no": 999,
        "meta_rev_at_epoch": 74461,
        "meta_bstar": 0.0020019244,
        "meta_mean_motion_dot": 0.00010799,
        "meta_mean_motion_ddot": 0,
        "tle_line1": "1 36493U 97051WK  25342.83238726  .00010799  00000+0  20019-2 0  9991",
        "tle_line2": "2 36493  86.3572  13.4155 0010691  18.0895 342.0696 14.65158506744618"
      },
      "geometry": {
        "type": "Point",
        "coordinates": [
          -166.6222114967292,
          -3.9295573920867266
        ]
      }
    },
    {
      "type": "Feature",
      "properties": {
        "norad_id": 37548,
        "name": "IRIDIUM 33 DEB",
        "group": "iridium-33-debris",
        "lat": 6.080039260760155,
        "lon": -135.60312202220604,
        "alt_km": 707.7394716833815,
        "timestamp": "2025-12-09T11:33:55.186454+00:00",
        "meta_object_name": "IRIDIUM 33 DEB",
        "meta_object_id": "1997-051XH",
        "meta_epoch": "2025-12-08T21:31:39.163584",
        "meta_mean_motion": 14.51252553,
        "meta_eccentricity": 0.0025132,
        "meta_inclination": 86.3517,
        "meta_ra_of_asc_node": 45.0407,
        "meta_arg_of_pericenter": 201.7474,
        "meta_mean_anomaly": 158.2667,
        "meta_ephemeris_type": 0,
        "meta_classification_type": "U",
        "meta_norad_cat_id": 37548,
        "meta_element_set_no": 999,
        "meta_rev_at_epoch": 65476,
        "meta_bstar": 0.0012917,
        "meta_mean_motion_dot": 5.175e-05,
        "meta_mean_motion_ddot": 0,
        "tle_line1": "1 37548U 97051XH  25342.89698106  .00005175  00000+0  12917-2 0  9991",
        "tle_line2": "2 37548  86.3517  45.0407 0025132 201.7474 158.2667 14.51252553654763"
      },
      "geometry": {
        "type": "Point",
        "coordinates": [
          -135.60312202220604,
          6.080039260760155
        ]
      }
    },
    {
      "type": "Feature",
      "properties": {
        "norad_id": 37550,
        "name": "IRIDIUM 33 DEB",
        "group": "iridium-33-debris",
        "lat": 23.485225854022968,
        "lon": 26.89725159276263,
        "alt_km": 669.9586232547799,
        "timestamp": "2025-12-09T11:33:55.186464+00:00",
        "meta_object_name": "IRIDIUM 33 DEB",
        "meta_object_id": "1997-051XK",
        "meta_epoch": "2025-12-06T21:15:18.690336",
        "meta_mean_motion": 14.67089693,
        "meta_eccentricity": 0.00053572,
        "meta_inclination": 86.377,
        "meta_ra_of_asc_node": 26.47,
        "meta_arg_of_pericenter": 124.88,
        "meta_mean_anomaly": 235.2918,
        "meta_ephemeris_type": 0,
        "meta_classification_type": "U",
        "meta_norad_cat_id": 37550,
        "meta_element_set_no": 999,
        "meta_rev_at_epoch": 86247,
        "meta_bstar": 0.0020360196,
        "meta_mean_motion_dot": 0.00011461,
        "meta_mean_motion_ddot": 0,
        "tle_line1": "1 37550U 97051XK  25340.88563299  .00011461  00000+0  20360-2 0  9991",
        "tle_line2": "2 37550  86.3770  26.4700 0005357 124.8800 235.2918 14.67089693862475"
      },
      "geometry": {
        "type": "Point",
        "coordinates": [
          26.89725159276263,
          23.485225854022968
        ]
      }
    }
  ]
}